39188,O3B FM5,2013,287.93,700.0,+,0.04,Active,1,MEO,French Guiana,O3b Networks,Commercial,Communications,Soyuz,1 39188U 13031A   24020.15882107 -.00000020  00000+0  00000+0 0  9998,2 39188   0.0377  18.7327 0002964 276.4286  64.8033  5.00114841193069,5.00114841,0.0002964,MEO
39189,O3B FM4,2013,287.93,700.0,+,0.06,Active,1,MEO,French Guiana,O3b Networks,Commercial,Communications,Soyuz,1 39189U 13031B   24020.21428678 -.00000020  00000+0  00000+0 0  9995,2 39189   0.0616   1.9792 0002938 293.6008  64.3850  5.00114824193085,5.00114824,0.0002938,MEO
39190,O3B FM2,2013,287.93,700.0,+,0.07,Active,1,MEO,French Guiana,O3b Networks,Commercial,Communications,Soyuz,1 39190U 13031C   24020.30641319 -.00000020  00000+0  00000+0 0  9996,2 39190   0.0669   0.9319 0002794 295.3986  63.6361  5.00115439193142,5.00115439,0.0002794,MEO
39191,O3B PFM,2013,287.93,700.0,+,0.04,Active,1,MEO,French Guiana,O3b Networks,Commercial,Communications,Soyuz,1 39191U 13031D   24020.33207884 -.00000020  00000+0  00000+0 0  9995,2 39191   0.0442   9.7337 0002637 289.9705  60.2648  5.00116128192701,5.00116128,0.0002637,MEO
39285,ASTRA 2E,2013,1436.12,6052.0,+,0.06,Active,1,GSO,Kazakhstan,SES,Commercial,Communications,Proton,1 39285U 13056A   24020.25176105  .00000155  00000+0  00000+0 0  9996,2 39285   0.0573 349.8850 0002754 317.8647 290.4606  1.00270573 37625,1.00270573,0.0002754,GEO
39460,SES-8,2013,1436.09,3138.0,+,0.06,Active,1,GSO,USA,SES,Commercial,Communications,Falcon,1 39460U 13071A   24020.54899116 -.00000265  00000+0  00000+0 0  9997,2 39460   0.0549 255.6739 0000977  50.3735 105.9972  1.00271797 35617,1.00271797,9.77e-05,GEO
39617,ASTRA 5B,2014,1436.07,5724.0,+,0.09,Active,1,GSO,French Guiana,SES,Commercial,Communications,Ariane,1 39617U 14011B   24020.25080380  .00000141  00000+0  00000+0 0  9991,2 39617   0.0911 295.8340 0004684 356.8992 300.1733  1.00268816 35854,1.00268816,0.0004684,GEO
40079,O3B FM3,2014,287.93,650.0,+,0.06,Active,1,MEO,French Guiana,O3b Networks,Commercial,Communications,Soyuz,1 40079U 14038A   24020.18643897 -.00000020  00000+0  00000+0 0  9991,2 40079   0.0550   5.4844 0002110 352.5666   1.9435  5.00116639169069,5.00116639,0.000211,MEO
40080,O3B FM7,2014,287.93,650.0,+,0.06,Active,1,MEO,French Guiana,O3b Networks,Commercial,Communications,Soyuz,1 40080U 14038B   24020.33310731 -.00000020  00000+0  00000+0 0  9998,2 40080   0.0592   7.0981 0003899 267.9783  84.8744  5.00115992173914,5.00115992,0.0003899,MEO
40081,O3B FM6,2014,287.93,650.0,+,0.06,Active,1,MEO,French Guiana,O3b Networks,Commercial,Communications,Soyuz,1 40081U 14038C   24020.35993722 -.00000020  00000+0  00000+0 0  9998,2 40081   0.0554   4.4304 0002661 294.5812  60.9570  5.00115252173863,5.00115252,0.0002661,MEO
40082,O3B FM8,2014,287.93,650.0,+,0.06,Active,1,MEO,French Guiana,O3b Networks,Commercial,Communications,Soyuz,1 40082U 14038D   24020.21356687 -.00000020  00000+0  00000+0 0  9997,2 40082   0.0563   5.0897 0002779 296.9530  57.9257  5.00115307173972,5.00115307,0.0002779,MEO
40348,O3B FM10,2014,287.93,650.0,+,0.05,Active,1,MEO,French Guiana,O3b Networks,Commercial,Communications,Soyuz,1 40348U 14083A   24020.24004318 -.00000020  00000+0  00000+0 0  9996,2 40348   0.0464   3.7654 0002691 294.9809  61.2220  5.00115361165927,5.00115361,0.0002691,MEO
40349,O3B FM11,2014,287.93,650.0,+,0.05,Active,1,MEO,French Guiana,O3b Networks,Commercial,Communications,Soyuz,1 40349U 14083B   24020.45318345 -.00000020  00000+0  00000+0 0  9998,2 40349   0.0475   9.3829 0002755 275.2648  75.3170  5.00115521165940,5.00115521,0.0002755,MEO
40350,O3B FM12,2014,287.93,650.0,+,0.05,Active,1,MEO,French Guiana,O3b Networks,Commercial,Communications,Soyuz,1 40350U 14083C   24020.48048070 -.00000020  00000+0  00000+0 0  9998,2 40350   0.0480   8.4387 0002572 289.1119  62.4186  5.00115498165960,5.00115498,0.0002572,MEO
40351,O3B FM9,2014,287.93,650.0,+,0.05,Active,1,MEO,French Guiana,O3b Networks,Commercial,Communications,Soyuz,1 40351U 14083D   24020.50706191 -.00000021  00000+0  00000+0 0  9998,2 40351   0.0475  10.8305 0002723 286.7611  62.3760  5.00114977166116,5.00114977,0.0002723,MEO
40364,ASTRA 2G,2014,1436.06,6000.0,+,0.04,Active,1,GSO,Kazakhstan,SES,Commercial,Communications,Proton,1 40364U 14089A   24020.46644623  .00000154  00000+0  00000+0 0  9990,2 40364   0.0386  13.2801 0002460 349.6579 312.5058  1.00267883 33157,1.00267883,0.000246,GEO
41380,SES-9,2016,1436.12,5271.0,+,0.04,Active,1,GSO,USA,SES,Commercial,Communications,Falcon,1 41380U 16013A   24019.98124126 -.00000341  00000+0  00000+0 0  9993,2 41380   0.0404 281.3087 0000614  88.0987 210.9783  1.00271247 28628,1.00271247,6.14e-05,GEO
42432,SES-10,2017,1436.14,5271.0,+,0.02,Active,1,GSO,USA,SES,Commercial,Communications,Falcon,1 42432U 17017A   24020.15871348 -.00000268  00000+0  00000+0 0  9991,2 42432   0.0109  46.9920 0003091 242.2750 179.9929  1.00278604 24934,1.00278604,0.0003091,GEO
42967,SES-11 (ECHOSTAR 105),2017,1436.11,5200.0,+,0.02,Active,1,GSO,USA,SES,Commercial,Communications,Falcon,1 42967U 17063A   24020.13776115 -.00000084  00000+0  00000+0 0  9995,2 42967   0.0262  72.8903 0003140 223.7019 127.0401  1.00271295 22906,1.00271295,0.000314,GEO
43175,SES-14,2018,1436.11,4423.0,+,0.01,Active,1,GSO,French Guiana,SES,Commercial,Communications,Ariane,1 43175U 18012B   24020.09297635 -.00000274  00000+0  00000+0 0  9993,2 43175   0.0095  11.5201 0001169 277.5886 175.8123  1.00271071 22253,1.00271071,0.0001169,GEO
43231,O3B FM15,2018,287.93,650.0,+,0.05,Active,1,MEO,French Guiana,O3b Networks,Commercial,Communications,Soyuz,1 43231U 18024A   24020.37334680 -.00000020  00000+0  00000+0 0  9991,2 43231   0.0455 359.6154 0002654 298.0372  62.3158  5.00114722107061,5.00114722,0.0002654,MEO
43232,O3B FM16,2018,287.93,650.0,+,0.04,Active,1,MEO,French Guiana,O3b Networks,Commercial,Communications,Soyuz,1 43232U 18024B   24020.22633523 -.00000020  00000+0  00000+0 0  9994,2 43232   0.0438 354.7830 0002677 302.1791  63.0059  5.00115191106975,5.00115191,0.0002677,MEO
43233,O3B FM14,2018,287.93,650.0,+,0.04,Active,1,MEO,French Guiana,O3b Networks,Commercial,Communications,Soyuz,1 43233U 18024C   24020.46622622 -.00000020  00000+0  00000+0 0  9999,2 43233   0.0439 352.6038 0002812 302.2988  65.0635  5.00115892106985,5.00115892,0.0002812,MEO
43234,O3B FM13,2018,287.93,650.0,+,0.05,Active,1,MEO,French Guiana,O3b Networks,Commercial,Communications,Soyuz,1 43234U 18024D   24020.32006275 -.00000020  00000+0  00000+0 0  9995,2 43234   0.0525  33.2631 0002082 261.6065  65.1041  5.00115335107105,5.00115335,0.0002082,MEO
43488,SES-12,2018,1436.11,5300.0,+,0.01,Active,1,GSO,USA,SES,Commercial,Communications,Falcon,1 43488U 18049A   24020.39621389 -.00000265  00000+0  00000+0 0  9990,2 43488   0.0125  28.6299 0002628 252.0078  76.2462  1.00271699 20605,1.00271699,0.0002628,GEO
44112,O3B FM20,2019,287.93,700.0,+,0.05,Active,1,MEO,French Guiana,O3b Networks,Commercial,Communications,Soyuz,1 44112U 19020A   24020.49291478 -.00000021  00000+0  00000+0 0  9998,2 44112   0.0470   3.3536 0002503 287.7721  68.8428  5.00115840 87611,5.0011584,0.0002503,MEO
44113,O3B FM19,2019,287.93,700.0,+,0.05,Active,1,MEO,French Guiana,O3b Networks,Commercial,Communications,Soyuz,1 44113U 19020B   24020.32005129 -.00000020  00000+0  00000+0 0  9996,2 44113   0.0467  16.4748 0003934 268.7961  74.6808  5.00115373 87474,5.00115373,0.0003934,MEO
44114,O3B FM17,2019,287.93,700.0,+,0.06,Active,1,MEO,French Guiana,O3b Networks,Commercial,Communications,Soyuz,1 44114U 19020C   24020.40010520 -.00000020  00000+0  00000+0 0  9997,2 44114   0.0598 346.8468 0002604 311.3994  61.7228  5.00116124 87561,5.00116124,0.0002604,MEO
44115,O3B FM18,2019,287.93,700.0,+,0.05,Active,1,MEO,French Guiana,O3b Networks,Commercial,Communications,Soyuz,1 44115U 19020D   24020.34654093 -.00000020  00000+0  00000+0 0  9990,2 44115   0.0467   3.7561 0002757 295.4694  60.7422  5.00116115 87686,5.00116115,0.0002757,MEO
49332,SES-17,2021,1436.12,6411.0,+,0.01,Active,1,GSO,French Guiana,SES,Commercial,Communications,Ariane,1 49332U 21095A   24018.58546286 -.00000267  00000+0  00000+0 0  9991,2 49332   0.0135  63.5025 0001112 198.3564 359.2754  1.00270076  9012,1.00270076,0.0001112,GEO
